{"type": "FeatureCollection", "features": [ {"type": "Feature", "properties": {"norad_id": 35020, "name": "COSMOS 2251 DEB", "group": "cosmos-2251-debris", "lat": 6.589266439074645, "lon": -164.41714066233055, "alt_km": 653.0313834073149, "timestamp": "2025-12-15T11:38:37.547837+00:00", "meta": {"OBJECT_NAME": "COSMOS 2251 DEB", "OBJECT_ID": "1993-036AGH", "EPOCH": "2025-12-13T23:30:11.436192", "MEAN_MOTION": 14.62807678, "ECCENTRICITY": 0.00911998, "INCLINATION": 74.0461, "RA_OF_ASC_NODE": 196.573, "ARG_OF_PERICENTER": 310.4261, "MEAN_ANOMALY": 48.8974, "EPHEMERIS_TYPE": 0, "CLASSIFICATION_TYPE": "U", "NORAD_CAT_ID": 35020, "ELEMENT_SET_NO": 999, "REV_AT_EPOCH": 88256, "BSTAR": 0.00019069928, "MEAN_MOTION_DOT": 9.99e-06, "MEAN_MOTION_DDOT": 0}, "tle": {"line1": "1 35020U 93036AGH 25347.97929903  .00000999  00000+0  19070-3 0  9996", "line2": "2 35020  74.0461 196.5730 0091199 310.4261  48.8974 14.62807678882569"}}, "geometry": {"type": "Point", "coordinates": [-164.41714066233055, 6.589266439074645]}}, {"type": "Feature", "properties": {"norad_id": 35022, "name": "COSMOS 2251 DEB", "group": "cosmos-2251-debris", "lat": 36.04546681694907, "lon": -31.287028416113664, "alt_km": 702.9269780766754, "timestamp": "2025-12-15T11:38:37.547847+00:00", "meta": {"OBJECT_NAME": "COSMOS 2251 DEB", "OBJECT_ID": "1993-036AGK", "EPOCH": "2025-12-14T15:44:51.573408", "MEAN_MOTION": 14.60843791, "ECCENTRICITY": 0.00466302, "INCLINATION": 74.0269, "RA_OF_ASC_NODE": 318.2658, "ARG_OF_PERICENTER": 157.5596, "MEAN_ANOMALY": 202.7625, "EPHEMERIS_TYPE": 0, "CLASSIFICATION_TYPE": "U", "NORAD_CAT_ID": 35022, "ELEMENT_SET_NO": 999, "REV_AT_EPOCH": 59171, "BSTAR": 0.00045790738, "MEAN_MOTION_DOT": 2.243e-05, "MEAN_MOTION_DDOT": 0}, "tle": {"line1": "1 35022U 93036AGK 25348.65615247  .00002243  00000+0  45791-3 0  9990", "line2": "2 35022  74.0269 318.2658 0046630 157.5596 202.7625 14.60843791591712"}}, "geometry": {"type": "Point", "coordinates": [-31.287028416113664, 36.04546681694907]}}, {"type": "Feature", "properties": {"norad_id": 35023, "name": "COSMOS 2251 DEB", "group": "cosmos-2251-debris", "lat": -11.192637436467852, "lon": 30.296685884585234, "alt_km": 586.8237461023782, "timestamp": "2025-12-15T11:38:37.547856+00:00", "meta": {"OBJECT_NAME": "COSMOS 2251 DEB", "OBJECT_ID": "1993-036AGL", "EPOCH": "2025-12-14T14:00:45.766656", "MEAN_MOTION": 14.95177195, "ECCENTRICITY": 0.00339089, "INCLINATION": 74.0377, "RA_OF_ASC_NODE": 208.867, "ARG_OF_PERICENTER": 286.3336, "MEAN_ANOMALY": 96.2717, "EPHEMERIS_TYPE": 0, "CLASSIFICATION_TYPE": "U", "NORAD_CAT_ID": 35023, "ELEMENT_SET_NO": 999, "REV_AT_EPOCH": 88307, "BSTAR": 0.0010462631, "MEAN_MOTION_DOT": 0.00011606, "MEAN_MOTION_DDOT": 0}, "tle": {"line1": "1 35023U 93036AGL 25348.58386304  .00011606  00000+0  10463-2 0  9992", "line2": "2 35023  74.0377 208.8670 0033908 286.3336  96.2717 14.95177195883075"}}, "geometry": {"type": "Point", "coordinates": [30.296685884585234, -11.192637436467852]}}, {"type": "Feature", "properties": {"norad_id": 35025, "name": "COSMOS 2251 DEB", "group": "cosmos-2251-debris", "lat": 43.736719109021685, "lon": 73.55084052998204, "alt_km": 633.7090688907738, "timestamp": "2025-12-15T11:38:37.547866+00:00", "meta": {"OBJECT_NAME": "COSMOS 2251 DEB", "OBJECT_ID": "1993-036AGN", "EPOCH": "2025-12-14T10:58:59.518848", "MEAN_MOTION": 14.72720233, "ECCENTRICITY": 0.00852576, "INCLINATION": 73.939, "RA_OF_ASC_NODE": 59.5616, "ARG_OF_PERICENTER": 332.0086, "MEAN_ANOMALY": 27.6512, "EPHEMERIS_TYPE": 0, "CLASSIFICATION_TYPE": "U", "NORAD_CAT_ID": 35025, "ELEMENT_SET_NO": 999, "REV_AT_EPOCH": 88668, "BSTAR": 0.00044102705, "MEAN_MOTION_DOT": 2.945e-05, "MEAN_MOTION_DDOT": 0}, "tle": {"line1": "1 35025U 93036AGN 25348.45763332  .00002945  00000+0  44103-3 0  9995", "line2": "2 35025  73.9390  59.5616 0085257 332.0086  27.6512 14.72720233886689"}}, "geometry": {"type": "Point", "coordinates": [73.55084052998204, 43.736719109021685]}}, {"type": "Feature", "properties": {"norad_id": 35026, "name": "COSMOS 2251 DEB", "group": "cosmos-2251-debris", "lat": 73.77347145509533, "lon": 33.008607644334475, "alt_km": 651.7321828440599, "timestamp": "2025-12-15T11:38:37.547876+00:00", "meta": {"OBJECT_NAME": "COSMOS 2251 DEB", "OBJECT_ID": "1993-036AGP", "EPOCH": "2025-12-13T06:41:51.254880", "MEAN_MOTION": 14.53623986, "ECCENTRICITY": 0.00823222, "INCLINATION": 74.0467, "RA_OF_ASC_NODE": 317.7836, "ARG_OF_PERICENTER": 71.0972, "MEAN_ANOMALY": 355.7631, "EPHEMERIS_TYPE": 0, "CLASSIFICATION_TYPE": "U", "NORAD_CAT_ID": 35026, "ELEMENT_SET_NO": 999, "REV_AT_EPOCH": 88151, "BSTAR": 0.0001179875, "MEAN_MOTION_DOT": 4.86e-06, "MEAN_MOTION_DDOT": 0}, "tle": {"line1": "1 35026U 93036AGP 25347.27906545  .00000486  00000+0  11799-3 0  9993", "line2": "2 35026  74.0467 317.7836 0082322  71.0972 355.7631 14.53623986881514"}}, "geometry": {"type": "Point", "coordinates": [33.008607644334475, 73.77347145509533]}}, {"type": "Feature", "properties": {"norad_id": 35028, "name": "COSMOS 2251 DEB", "group": "cosmos-2251-debris", "lat": -45.90037174127872, "lon": 102.95032552531283, "alt_km": 768.2644380792517, "timestamp": "2025-12-15T11:38:37.547886+00:00", "meta": {"OBJECT_NAME": "COSMOS 2251 DEB", "OBJECT_ID": "1993-036AGR", "EPOCH": "2025-12-13T04:31:14.272896", "MEAN_MOTION": 14.56570709, "ECCENTRICITY": 0.00824622, "INCLINATION": 74.0384, "RA_OF_ASC_NODE": 270.1287, "ARG_OF_PERICENTER": 43.6868, "MEAN_ANOMALY": 26.0271, "EPHEMERIS_TYPE": 0, "CLASSIFICATION_TYPE": "U", "NORAD_CAT_ID": 35028, "ELEMENT_SET_NO": 999, "REV_AT_EPOCH": 88292, "BSTAR": 0.0001683276, "MEAN_MOTION_DOT": 7.54e-06, "MEAN_MOTION_DDOT": 0}, "tle": {"line1": "1 35028U 93036AGR 25347.18835964  .00000754  00000+0  16833-3 0  9993", "line2": "2 35028  74.0384 270.1287 0082462  43.6868  26.0271 14.56570709882921"}}, "geometry": {"type": "Point", "coordinates": [102.95032552531283, -45.90037174127872]}}, {"type": "Feature", "properties": {"norad_id": 35031, "name": "COSMOS 2251 DEB", "group": "cosmos-2251-debris", "lat": -39.05045364969199, "lon": -119.22067933640513, "alt_km": 758.2697635576933, "timestamp": "2025-12-15T11:38:37.547896+00:00", "meta": {"OBJECT_NAME": "COSMOS 2251 DEB", "OBJECT_ID": "1993-036AGU", "EPOCH": "2025-12-14T10:47:36.095712", "MEAN_MOTION": 14.3829612, "ECCENTRICITY": 0.00189509, "INCLINATION": 74.0381, "RA_OF_ASC_NODE": 256.1121, "ARG_OF_PERICENTER": 349.2391, "MEAN_ANOMALY": 10.8355, "EPHEMERIS_TYPE": 0, "CLASSIFICATION_TYPE": "U", "NORAD_CAT_ID": 35031, "ELEMENT_SET_NO": 999, "REV_AT_EPOCH": 65308, "BSTAR": 0.00022777263, "MEAN_MOTION_DOT": 6.68e-06, "MEAN_MOTION_DDOT": 0}, "tle": {"line1": "1 35031U 93036AGU 25348.44972333  .00000668  00000+0  22777-3 0  9997", "line2": "2 35031  74.0381 256.1121 0018950 349.2391  10.8355 14.38296120653089"}}, "geometry": {"type": "Point", "coordinates": [-119.22067933640513, -39.05045364969199]}}, {"type": "Feature", "properties": {"norad_id": 35032, "name": "COSMOS 2251 DEB", "group": "cosmos-2251-debris", "lat": 25.4544264565684, "lon": 9.917672523996803, "alt_km": 744.0617389266772, "timestamp": "2025-12-15T11:38:37.547906+00:00", "meta": {"OBJECT_NAME": "COSMOS 2251 DEB", "OBJECT_ID": "1993-036AGV", "EPOCH": "2025-12-14T19:52:23.160576", "MEAN_MOTION": 14.58745968, "ECCENTRICITY": 0.00682524, "INCLINATION": 73.8521, "RA_OF_ASC_NODE": 3.2556, "ARG_OF_PERICENTER": 214.2465, "MEAN_ANOMALY": 322.9329, "EPHEMERIS_TYPE": 0, "CLASSIFICATION_TYPE": "U", "NORAD_CAT_ID": 35032, "ELEMENT_SET_NO": 999, "REV_AT_EPOCH": 87704, "BSTAR": 0.00078629942, "MEAN_MOTION_DOT": 3.761e-05, "MEAN_MOTION_DDOT": 0}, "tle": {"line1": "1 35032U 93036AGV 25348.82804584  .00003761  00000+0  78630-3 0  9998", "line2": "2 35032  73.8521   3.2556 0068252 214.2465 322.9329 14.58745968877042"}}, "geometry": {"type": "Point", "coordinates": [9.917672523996803, 25.4544264565684]}}, {"type": "Feature", "properties": {"norad_id": 35033, "name": "COSMOS 2251 DEB", "group": "cosmos-2251-debris", "lat": -25.777002496615093, "lon": 163.4598532639252, "alt_km": 722.0458635183049, "timestamp": "2025-12-15T11:38:37.547915+00:00", "meta": {"OBJECT_NAME": "COSMOS 2251 DEB", "OBJECT_ID": "1993-036AGW", "EPOCH": "2025-12-14T19:13:10.523136", "MEAN_MOTION": 14.50941129, "ECCENTRICITY": 0.00144614, "INCLINATION": 74.0257, "RA_OF_ASC_NODE": 172.6985, "ARG_OF_PERICENTER": 279.0961, "MEAN_ANOMALY": 80.8563, "EPHEMERIS_TYPE": 0, "CLASSIFICATION_TYPE": "U", "NORAD_CAT_ID": 35033, "ELEMENT_SET_NO": 999, "REV_AT_EPOCH": 65957, "BSTAR": 0.00063074773, "MEAN_MOTION_DOT": 2.468e-05, "MEAN_MOTION_DDOT": 0}, "tle": {"line1": "1 35033U 93036AGW 25348.80081624  .00002468  00000+0  63075-3 0  9999", "line2": "2 35033  74.0257 172.6985 0014461 279.0961  80.8563 14.50941129659577"}}, "geometry": {"type": "Point", "coordinates": [163.4598532639252, -25.777002496615093]}}, {"type": "Feature", "properties": {"norad_id": 35038, "name": "COSMOS 2251 DEB", "group": "cosmos-2251-debris", "lat": 42.68946279487532, "lon": 52.889820075518635, "alt_km": 729.1923430610232, "timestamp": "2025-12-15T11:38:37.547925+00:00", "meta": {"OBJECT_NAME": "COSMOS 2251 DEB", "OBJECT_ID": "1993-036AHB", "EPOCH": "2025-12-14T14:14:15.960192", "MEAN_MOTION": 14.25160054, "ECCENTRICITY": 0.01139869, "INCLINATION": 74.1078, "RA_OF_ASC_NODE": 39.2553, "ARG_OF_PERICENTER": 22.5208, "MEAN_ANOMALY": 127.6311, "EPHEMERIS_TYPE": 0, "CLASSIFICATION_TYPE": "U", "NORAD_CAT_ID": 35038, "ELEMENT_SET_NO": 999, "REV_AT_EPOCH": 85595, "BSTAR": 0.0011793759, "MEAN_MOTION_DOT": 2.94e-05, "MEAN_MOTION_DDOT": 0}, "tle": {"line1": "1 35038U 93036AHB 25348.59324028  .00002940  00000+0  11794-2 0  9993", "line2": "2 35038  74.1078  39.2553 0113986  22.5208 127.6311 14.25160054855953"}}, "geometry": {"type": "Point", "coordinates": [52.889820075518635, 42.68946279487532]}}]}